STARLINK-30950          
1 58440U 23183D   26068.43140173 -.00004482  00000+0 -15336-3 0  9993
2 58440  42.9999 206.5850 0001087 221.0616 139.0154 15.27600190128998
TEVEL2-3                
1 63218U 25052J   26068.64540225  .00020365  00000+0  69446-3 0  9991
2 63218  97.3994 324.7775 0004761 105.7353 254.4413 15.30377031 54855
